0 TIANMU-1 11
1 58645U 23205A   26178.99669753  .00005606  00000-0  21349-3 0  9997
2 58645  97.3441 200.3840 0007642 337.4996  22.5907 15.27102909139177
0 TIANMU-1 09
1 57401U 23101C   26178.97300891  .00006355  00000-0  22154-3 0  9991
2 57401  97.2538 228.5731 0004895 102.8509 257.3279 15.29968250163295
0 TIANMU-1 06
1 55976U 23039D   26178.96803118  .00015301  00000-0  29341-3 0  9991
2 55976  97.5220 353.6188 0004096  83.7719 276.3998 15.48093876182519
0 TIANMU-1 04
1 55974U 23039B   26178.96397507  .00015871  00000-0  30319-3 0  9998
2 55974  97.5168 352.5116 0004322  66.3098 293.8605 15.48193363182517
0 TIANMU-1 05
1 55975U 23039C   26178.95998646  .00015290  00000-0  29919-3 0  9998
2 55975  97.5211 352.9640 0003883  88.4115 271.7580 15.47508432182488
0 TIANMU-1 07
1 57399U 23101A   26178.95780626  .00006263  00000-0  21865-3 0  9999
2 57399  97.2591 229.3789 0004357  99.7337 260.4396 15.29928623163293
0 TIANMU-1 10
1 57402U 23101D   26178.94085110  .00006521  00000-0  22741-3 0  9990
2 57402  97.2617 229.6031 0006438  98.9181 261.2789 15.29940047163288
0 TIANMU-1 08
1 57400U 23101B   26178.92441830  .00006144  00000-0  21447-3 0  9994
2 57400  97.2580 229.1153 0005639  89.3558 270.8329 15.29932750163287
0 TIANMU-1 03
1 55973U 23039A   26178.91403543  .00015002  00000-0  29286-3 0  9997
2 55973  97.5228 353.3054 0003934  73.4515 286.7167 15.47581355182496
0 TIANMU-1 12
1 58646U 23205B   26178.90184524  .00003708  00000-0  14266-3 0  9998
2 58646  97.3431 200.0443 0005616 317.9001  42.1806 15.26997637139144
